[{"OBJECT_NAME":"TANSTAAFL-2","OBJECT_ID":"2024-247B","EPOCH":"2026-03-08T04:58:51.015360","MEAN_MOTION":15.28016845,"ECCENTRICITY":0.00030723,"INCLINATION":44.988,"RA_OF_ASC_NODE":125.0934,"ARG_OF_PERICENTER":298.8909,"MEAN_ANOMALY":61.1666,"EPHEMERIS_TYPE":0,"CLASSIFICATION_TYPE":"U","NORAD_CAT_ID":62378,"ELEMENT_SET_NO":999,"REV_AT_EPOCH":6750,"BSTAR":0.00050871624,"MEAN_MOTION_DOT":0.00013897,"MEAN_MOTION_DDOT":0},{"OBJECT_NAME":"STARLINK-34899","OBJECT_ID":"2025-189A","EPOCH":"2026-03-09T15:58:05.454624","MEAN_MOTION":15.30206823,"ECCENTRICITY":9.405e-5,"INCLINATION":53.1572,"RA_OF_ASC_NODE":206.7988,"ARG_OF_PERICENTER":92.7,"MEAN_ANOMALY":267.4109,"EPHEMERIS_TYPE":0,"CLASSIFICATION_TYPE":"U","NORAD_CAT_ID":65323,"ELEMENT_SET_NO":999,"REV_AT_EPOCH":3110,"BSTAR":0.00073385366,"MEAN_MOTION_DOT":0.00021443,"MEAN_MOTION_DDOT":0}]
